{"type": "FeatureCollection", "features": [ {"type": "Feature", "properties": {"norad_id": 41785, "name": "ALSAT 1B", "group": "resource", "lat": -2.979435693228558, "lon": 12.397243211467723, "alt_km": 654.8148466729217, "timestamp": "2025-12-26T19:22:38.551554+00:00", "meta": {"OBJECT_NAME": "ALSAT 1B", "OBJECT_ID": "2016-059C", "EPOCH": "2025-12-26T14:29:49.265952", "MEAN_MOTION": 14.72090241, "ECCENTRICITY": 0.00107254, "INCLINATION": 97.781, "RA_OF_ASC_NODE": 11.7949, "ARG_OF_PERICENTER": 64.5407, "MEAN_ANOMALY": 295.6909, "EPHEMERIS_TYPE": 0, "CLASSIFICATION_TYPE": "U", "NORAD_CAT_ID": 41785, "ELEMENT_SET_NO": 999, "REV_AT_EPOCH": 49518, "BSTAR": 0.00012301449, "MEAN_MOTION_DOT": 7.27e-06, "MEAN_MOTION_DDOT": 0}, "tle": {"line1": "1 41785U 16059C   25360.60404243  .00000727  00000+0  12301-3 0  9990", "line2": "2 41785  97.7810  11.7949 0010725  64.5407 295.6909 14.72090241495188"}}, "geometry": {"type": "Point", "coordinates": [12.397243211467723, -2.979435693228558]}}, {"type": "Feature", "properties": {"norad_id": 41787, "name": "PATHFINDER 1", "group": "resource", "lat": -15.760711082090662, "lon": -179.2928462666243, "alt_km": 693.5959355751929, "timestamp": "2025-12-26T19:22:38.551565+00:00", "meta": {"OBJECT_NAME": "PATHFINDER 1", "OBJECT_ID": "2016-059E", "EPOCH": "2025-12-26T13:34:46.547328", "MEAN_MOTION": 14.67345556, "ECCENTRICITY": 0.00295228, "INCLINATION": 97.8139, "RA_OF_ASC_NODE": 2.6979, "ARG_OF_PERICENTER": 38.9477, "MEAN_ANOMALY": 321.3847, "EPHEMERIS_TYPE": 0, "CLASSIFICATION_TYPE": "U", "NORAD_CAT_ID": 41787, "ELEMENT_SET_NO": 999, "REV_AT_EPOCH": 49439, "BSTAR": 0.00017285752, "MEAN_MOTION_DOT": 9.36e-06, "MEAN_MOTION_DDOT": 0}, "tle": {"line1": "1 41787U 16059E   25360.56581652  .00000936  00000+0  17286-3 0  9996", "line2": "2 41787  97.8139   2.6979 0029522  38.9477 321.3847 14.67345556494390"}}, "geometry": {"type": "Point", "coordinates": [-179.2928462666243, -15.760711082090662]}}, {"type": "Feature", "properties": {"norad_id": 41790, "name": "SCATSAT 1", "group": "resource", "lat": 55.38722377206047, "lon": 45.67656257490343, "alt_km": 592.0865058785303, "timestamp": "2025-12-26T19:22:38.551575+00:00", "meta": {"OBJECT_NAME": "SCATSAT 1", "OBJECT_ID": "2016-059H", "EPOCH": "2025-12-26T14:15:15.733440", "MEAN_MOTION": 14.78980653, "ECCENTRICITY": 0.00564298, "INCLINATION": 98.1445, "RA_OF_ASC_NODE": 57.4361, "ARG_OF_PERICENTER": 84.3615, "MEAN_ANOMALY": 276.4027, "EPHEMERIS_TYPE": 0, "CLASSIFICATION_TYPE": "U", "NORAD_CAT_ID": 41790, "ELEMENT_SET_NO": 999, "REV_AT_EPOCH": 7607, "BSTAR": 0.00021562195, "MEAN_MOTION_DOT": 1.578e-05, "MEAN_MOTION_DDOT": 0}, "tle": {"line1": "1 41790U 16059H   25360.59393210  .00001578  00000+0  21562-3 0  9999", "line2": "2 41790  98.1445  57.4361 0056429  84.3615 276.4027 14.78980653 76072"}}, "geometry": {"type": "Point", "coordinates": [45.67656257490343, 55.38722377206047]}}, {"type": "Feature", "properties": {"norad_id": 41875, "name": "GOKTURK 1A", "group": "resource", "lat": 42.712120171468214, "lon": -114.60990463881217, "alt_km": 679.9511021760081, "timestamp": "2025-12-26T19:22:38.551585+00:00", "meta": {"OBJECT_NAME": "GOKTURK 1A", "OBJECT_ID": "2016-073A", "EPOCH": "2025-12-26T15:53:49.144704", "MEAN_MOTION": 14.62794861, "ECCENTRICITY": 0.00012806, "INCLINATION": 98.1423, "RA_OF_ASC_NODE": 252.842, "ARG_OF_PERICENTER": 83.4139, "MEAN_ANOMALY": 276.7208, "EPHEMERIS_TYPE": 0, "CLASSIFICATION_TYPE": "U", "NORAD_CAT_ID": 41875, "ELEMENT_SET_NO": 999, "REV_AT_EPOCH": 48360, "BSTAR": 7.2254329e-05, "MEAN_MOTION_DOT": 3.22e-06, "MEAN_MOTION_DDOT": 0}, "tle": {"line1": "1 41875U 16073A   25360.66237436  .00000322  00000+0  72254-4 0  9995", "line2": "2 41875  98.1423 252.8420 0001280  83.4139 276.7208 14.62794861483607"}}, "geometry": {"type": "Point", "coordinates": [-114.60990463881217, 42.712120171468214]}}, {"type": "Feature", "properties": {"norad_id": 41877, "name": "RESOURCESAT-2A", "group": "resource", "lat": 9.721748344350534, "lon": -107.90359538260017, "alt_km": 820.4130992680184, "timestamp": "2025-12-26T19:22:38.551595+00:00", "meta": {"OBJECT_NAME": "RESOURCESAT-2A", "OBJECT_ID": "2016-074A", "EPOCH": "2025-12-26T15:12:05.779008", "MEAN_MOTION": 14.21605811, "ECCENTRICITY": 0.0001654, "INCLINATION": 98.7734, "RA_OF_ASC_NODE": 70.4074, "ARG_OF_PERICENTER": 195.6939, "MEAN_ANOMALY": 164.4187, "EPHEMERIS_TYPE": 0, "CLASSIFICATION_TYPE": "U", "NORAD_CAT_ID": 41877, "ELEMENT_SET_NO": 999, "REV_AT_EPOCH": 46978, "BSTAR": 0.00011783358, "MEAN_MOTION_DOT": 2.14e-06, "MEAN_MOTION_DDOT": 0}, "tle": {"line1": "1 41877U 16074A   25360.63340022  .00000214  00000+0  11783-3 0  9990", "line2": "2 41877  98.7734  70.4074 0001654 195.6939 164.4187 14.21605811469781"}}, "geometry": {"type": "Point", "coordinates": [-107.90359538260017, 9.721748344350534]}}, {"type": "Feature", "properties": {"norad_id": 41948, "name": "CARTOSAT-2D", "group": "resource", "lat": 72.26968247543658, "lon": 33.97665552882357, "alt_km": 498.4048467260127, "timestamp": "2025-12-26T19:22:38.551605+00:00", "meta": {"OBJECT_NAME": "CARTOSAT-2D", "OBJECT_ID": "2017-008A", "EPOCH": "2025-12-26T14:18:40.289760", "MEAN_MOTION": 15.19205766, "ECCENTRICITY": 0.00054084, "INCLINATION": 97.4366, "RA_OF_ASC_NODE": 57.8816, "ARG_OF_PERICENTER": 113.7312, "MEAN_ANOMALY": 246.449, "EPHEMERIS_TYPE": 0, "CLASSIFICATION_TYPE": "U", "NORAD_CAT_ID": 41948, "ELEMENT_SET_NO": 999, "REV_AT_EPOCH": 49137, "BSTAR": 0.00033757319, "MEAN_MOTION_DOT": 7.042e-05, "MEAN_MOTION_DDOT": 0}, "tle": {"line1": "1 41948U 17008A   25360.59629965  .00007042  00000+0  33757-3 0  9999", "line2": "2 41948  97.4366  57.8816 0005408 113.7312 246.4490 15.19205766491378"}}, "geometry": {"type": "Point", "coordinates": [33.97665552882357, 72.26968247543658]}}, {"type": "Feature", "properties": {"norad_id": 42063, "name": "SENTINEL-2B", "group": "resource", "lat": -63.11058035335929, "lon": -124.2438677335698, "alt_km": 796.9445252932419, "timestamp": "2025-12-26T19:22:38.551615+00:00", "meta": {"OBJECT_NAME": "SENTINEL-2B", "OBJECT_ID": "2017-013A", "EPOCH": "2025-12-26T14:52:55.757856", "MEAN_MOTION": 14.30817062, "ECCENTRICITY": 0.00011795, "INCLINATION": 98.5695, "RA_OF_ASC_NODE": 72.8704, "ARG_OF_PERICENTER": 88.4022, "MEAN_ANOMALY": 271.7296, "EPHEMERIS_TYPE": 0, "CLASSIFICATION_TYPE": "U", "NORAD_CAT_ID": 42063, "ELEMENT_SET_NO": 999, "REV_AT_EPOCH": 45996, "BSTAR": 0.00015997086, "MEAN_MOTION_DOT": 3.76e-06, "MEAN_MOTION_DDOT": 0}, "tle": {"line1": "1 42063U 17013A   25360.62008979  .00000376  00000+0  15997-3 0  9993", "line2": "2 42063  98.5695  72.8704 0001179  88.4022 271.7296 14.30817062459968"}}, "geometry": {"type": "Point", "coordinates": [-124.2438677335698, -63.11058035335929]}}, {"type": "Feature", "properties": {"norad_id": 42767, "name": "CARTOSAT-2E", "group": "resource", "lat": -16.73781781218791, "lon": 60.46525440252884, "alt_km": 514.9631830905937, "timestamp": "2025-12-26T19:22:38.551625+00:00", "meta": {"OBJECT_NAME": "CARTOSAT-2E", "OBJECT_ID": "2017-036C", "EPOCH": "2025-12-26T14:42:33.309792", "MEAN_MOTION": 15.19215118, "ECCENTRICITY": 0.00025937, "INCLINATION": 97.4533, "RA_OF_ASC_NODE": 58.017, "ARG_OF_PERICENTER": 167.0787, "MEAN_ANOMALY": 193.0514, "EPHEMERIS_TYPE": 0, "CLASSIFICATION_TYPE": "U", "NORAD_CAT_ID": 42767, "ELEMENT_SET_NO": 999, "REV_AT_EPOCH": 47194, "BSTAR": 0.00039869189, "MEAN_MOTION_DOT": 8.33e-05, "MEAN_MOTION_DDOT": 0}, "tle": {"line1": "1 42767U 17036C   25360.61288553  .00008330  00000+0  39869-3 0  9998", "line2": "2 42767  97.4533  58.0170 0002593 167.0787 193.0514 15.19215118471947"}}, "geometry": {"type": "Point", "coordinates": [60.46525440252884, -16.73781781218791]}}, {"type": "Feature", "properties": {"norad_id": 42920, "name": "FORMOSAT-5", "group": "resource", "lat": 1.7994403225916575, "lon": -104.89649482363328, "alt_km": 724.0914480350002, "timestamp": "2025-12-26T19:22:38.551635+00:00", "meta": {"OBJECT_NAME": "FORMOSAT-5", "OBJECT_ID": "2017-049A", "EPOCH": "2025-12-26T15:14:51.581472", "MEAN_MOTION": 14.50768591, "ECCENTRICITY": 0.0009854, "INCLINATION": 98.2437, "RA_OF_ASC_NODE": 74.674, "ARG_OF_PERICENTER": 253.9058, "MEAN_ANOMALY": 106.1052, "EPHEMERIS_TYPE": 0, "CLASSIFICATION_TYPE": "U", "NORAD_CAT_ID": 42920, "ELEMENT_SET_NO": 999, "REV_AT_EPOCH": 44165, "BSTAR": 7.8174286e-05, "MEAN_MOTION_DOT": 2.64e-06, "MEAN_MOTION_DDOT": 0}, "tle": {"line1": "1 42920U 17049A   25360.63531923  .00000264  00000+0  78174-4 0  9998", "line2": "2 42920  98.2437  74.6740 0009854 253.9058 106.1052 14.50768591441659"}}, "geometry": {"type": "Point", "coordinates": [-104.89649482363328, 1.7994403225916575]}}, {"type": "Feature", "properties": {"norad_id": 42969, "name": "SENTINEL-5P", "group": "resource", "lat": 68.96704067997537, "lon": -84.43111840901135, "alt_km": 819.519043982049, "timestamp": "2025-12-26T19:22:38.551646+00:00", "meta": {"OBJECT_NAME": "SENTINEL-5P", "OBJECT_ID": "2017-064A", "EPOCH": "2025-12-26T13:58:12.206208", "MEAN_MOTION": 14.19520906, "ECCENTRICITY": 0.00010675, "INCLINATION": 98.7802, "RA_OF_ASC_NODE": 299.0446, "ARG_OF_PERICENTER": 91.0602, "MEAN_ANOMALY": 269.0696, "EPHEMERIS_TYPE": 0, "CLASSIFICATION_TYPE": "U", "NORAD_CAT_ID": 42969, "ELEMENT_SET_NO": 999, "REV_AT_EPOCH": 42507, "BSTAR": 6.981866e-05, "MEAN_MOTION_DOT": 1.03e-06, "MEAN_MOTION_DDOT": 0}, "tle": {"line1": "1 42969U 17064A   25360.58208572  .00000103  00000+0  69819-4 0  9991", "line2": "2 42969  98.7802 299.0446 0001067  91.0602 269.0696 14.19520906425075"}}, "geometry": {"type": "Point", "coordinates": [-84.43111840901135, 68.96704067997537]}}]}